{"type": "FeatureCollection", "features": [ {"type": "Feature", "properties": {"norad_id": 41785, "name": "ALSAT 1B", "group": "resource", "lat": 30.40094315099563, "lon": -172.16031310844593, "alt_km": 649.0663172972445, "timestamp": "2025-12-17T15:50:09.434304+00:00", "meta": {"OBJECT_NAME": "ALSAT 1B", "OBJECT_ID": "2016-059C", "EPOCH": "2025-12-17T07:00:17.417664", "MEAN_MOTION": 14.72081596, "ECCENTRICITY": 0.00107792, "INCLINATION": 97.7814, "RA_OF_ASC_NODE": 2.8858, "ARG_OF_PERICENTER": 90.3138, "MEAN_ANOMALY": 269.9305, "EPHEMERIS_TYPE": 0, "CLASSIFICATION_TYPE": "U", "NORAD_CAT_ID": 41785, "ELEMENT_SET_NO": 999, "REV_AT_EPOCH": 49381, "BSTAR": 0.00010442468, "MEAN_MOTION_DOT": 6.1e-06, "MEAN_MOTION_DDOT": 0}, "tle": {"line1": "1 41785U 16059C   25351.29186826  .00000610  00000+0  10442-3 0  9994", "line2": "2 41785  97.7814   2.8858 0010779  90.3138 269.9305 14.72081596493814"}}, "geometry": {"type": "Point", "coordinates": [-172.16031310844593, 30.40094315099563]}}, {"type": "Feature", "properties": {"norad_id": 41787, "name": "PATHFINDER 1", "group": "resource", "lat": 35.569630139724694, "lon": 179.8406393425399, "alt_km": 662.6608185267332, "timestamp": "2025-12-17T15:50:09.434315+00:00", "meta": {"OBJECT_NAME": "PATHFINDER 1", "OBJECT_ID": "2016-059E", "EPOCH": "2025-12-17T07:00:07.098912", "MEAN_MOTION": 14.67329255, "ECCENTRICITY": 0.00299513, "INCLINATION": 97.8137, "RA_OF_ASC_NODE": 353.8541, "ARG_OF_PERICENTER": 67.3874, "MEAN_ANOMALY": 293.0495, "EPHEMERIS_TYPE": 0, "CLASSIFICATION_TYPE": "U", "NORAD_CAT_ID": 41787, "ELEMENT_SET_NO": 999, "REV_AT_EPOCH": 49303, "BSTAR": 0.00013070258, "MEAN_MOTION_DOT": 6.96e-06, "MEAN_MOTION_DDOT": 0}, "tle": {"line1": "1 41787U 16059E   25351.29174883  .00000696  00000+0  13070-3 0  9990", "line2": "2 41787  97.8137 353.8541 0029951  67.3874 293.0495 14.67329255493039"}}, "geometry": {"type": "Point", "coordinates": [179.8406393425399, 35.569630139724694]}}, {"type": "Feature", "properties": {"norad_id": 41790, "name": "SCATSAT 1", "group": "resource", "lat": -18.538559681632215, "lon": 51.14466957391887, "alt_km": 663.5434806781905, "timestamp": "2025-12-17T15:50:09.434326+00:00", "meta": {"OBJECT_NAME": "SCATSAT 1", "OBJECT_ID": "2016-059H", "EPOCH": "2025-12-17T02:55:51.287232", "MEAN_MOTION": 14.78951357, "ECCENTRICITY": 0.00563914, "INCLINATION": 98.146, "RA_OF_ASC_NODE": 47.8471, "ARG_OF_PERICENTER": 114.1558, "MEAN_ANOMALY": 246.5563, "EPHEMERIS_TYPE": 0, "CLASSIFICATION_TYPE": "U", "NORAD_CAT_ID": 41790, "ELEMENT_SET_NO": 999, "REV_AT_EPOCH": 7467, "BSTAR": 0.00018453947, "MEAN_MOTION_DOT": 1.342e-05, "MEAN_MOTION_DDOT": 0}, "tle": {"line1": "1 41790U 16059H   25351.12212138  .00001342  00000+0  18454-3 0  9992", "line2": "2 41790  98.1460  47.8471 0056391 114.1558 246.5563 14.78951357 74676"}}, "geometry": {"type": "Point", "coordinates": [51.14466957391887, -18.538559681632215]}}, {"type": "Feature", "properties": {"norad_id": 41875, "name": "GOKTURK 1A", "group": "resource", "lat": 38.849827099891684, "lon": 70.58172506150397, "alt_km": 680.862084929795, "timestamp": "2025-12-17T15:50:09.434336+00:00", "meta": {"OBJECT_NAME": "GOKTURK 1A", "OBJECT_ID": "2016-073A", "EPOCH": "2025-12-17T06:59:13.479072", "MEAN_MOTION": 14.62784631, "ECCENTRICITY": 0.00012661, "INCLINATION": 98.143, "RA_OF_ASC_NODE": 243.5956, "ARG_OF_PERICENTER": 78.8224, "MEAN_ANOMALY": 281.3121, "EPHEMERIS_TYPE": 0, "CLASSIFICATION_TYPE": "U", "NORAD_CAT_ID": 41875, "ELEMENT_SET_NO": 999, "REV_AT_EPOCH": 48223, "BSTAR": 6.9210247e-05, "MEAN_MOTION_DOT": 3.06e-06, "MEAN_MOTION_DDOT": 0}, "tle": {"line1": "1 41875U 16073A   25351.29112823  .00000306  00000+0  69210-4 0  9996", "line2": "2 41875  98.1430 243.5956 0001266  78.8224 281.3121 14.62784631482231"}}, "geometry": {"type": "Point", "coordinates": [70.58172506150397, 38.849827099891684]}}, {"type": "Feature", "properties": {"norad_id": 41877, "name": "RESOURCESAT-2A", "group": "resource", "lat": -1.3728211515063333, "lon": -118.72504212450633, "alt_km": 822.4455137984096, "timestamp": "2025-12-17T15:50:09.434346+00:00", "meta": {"OBJECT_NAME": "RESOURCESAT-2A", "OBJECT_ID": "2016-074A", "EPOCH": "2025-12-17T08:13:44.699808", "MEAN_MOTION": 14.2160077, "ECCENTRICITY": 0.00012873, "INCLINATION": 98.7755, "RA_OF_ASC_NODE": 61.172, "ARG_OF_PERICENTER": 232.5835, "MEAN_ANOMALY": 127.5226, "EPHEMERIS_TYPE": 0, "CLASSIFICATION_TYPE": "U", "NORAD_CAT_ID": 41877, "ELEMENT_SET_NO": 999, "REV_AT_EPOCH": 46846, "BSTAR": -7.09449e-07, "MEAN_MOTION_DOT": -4.6e-07, "MEAN_MOTION_DDOT": 0}, "tle": {"line1": "1 41877U 16074A   25351.34287847 -.00000046  00000+0 -70945-6 0  9996", "line2": "2 41877  98.7755  61.1720 0001287 232.5835 127.5226 14.21600770468464"}}, "geometry": {"type": "Point", "coordinates": [-118.72504212450633, -1.3728211515063333]}}, {"type": "Feature", "properties": {"norad_id": 41948, "name": "CARTOSAT-2D", "group": "resource", "lat": 64.0850400270118, "lon": -115.31849159609652, "alt_km": 498.81797456397, "timestamp": "2025-12-17T15:50:09.434357+00:00", "meta": {"OBJECT_NAME": "CARTOSAT-2D", "OBJECT_ID": "2017-008A", "EPOCH": "2025-12-17T07:25:43.829184", "MEAN_MOTION": 15.19305611, "ECCENTRICITY": 0.00050092, "INCLINATION": 97.4386, "RA_OF_ASC_NODE": 48.7382, "ARG_OF_PERICENTER": 149.3024, "MEAN_ANOMALY": 210.8504, "EPHEMERIS_TYPE": 0, "CLASSIFICATION_TYPE": "U", "NORAD_CAT_ID": 41948, "ELEMENT_SET_NO": 999, "REV_AT_EPOCH": 48996, "BSTAR": 0.00022633505, "MEAN_MOTION_DOT": 4.711e-05, "MEAN_MOTION_DDOT": 0}, "tle": {"line1": "1 41948U 17008A   25351.30953506  .00004711  00000+0  22634-3 0  9991", "line2": "2 41948  97.4386  48.7382 0005009 149.3024 210.8504 15.19305611489962"}}, "geometry": {"type": "Point", "coordinates": [-115.31849159609652, 64.0850400270118]}}, {"type": "Feature", "properties": {"norad_id": 42063, "name": "SENTINEL-2B", "group": "resource", "lat": -46.59948869979863, "lon": 73.21375789779238, "alt_km": 796.3633291326041, "timestamp": "2025-12-17T15:50:09.434369+00:00", "meta": {"OBJECT_NAME": "SENTINEL-2B", "OBJECT_ID": "2017-013A", "EPOCH": "2025-12-17T07:39:53.937792", "MEAN_MOTION": 14.30818471, "ECCENTRICITY": 0.00011433, "INCLINATION": 98.5714, "RA_OF_ASC_NODE": 63.701, "ARG_OF_PERICENTER": 92.5175, "MEAN_ANOMALY": 267.6139, "EPHEMERIS_TYPE": 0, "CLASSIFICATION_TYPE": "U", "NORAD_CAT_ID": 42063, "ELEMENT_SET_NO": 999, "REV_AT_EPOCH": 45863, "BSTAR": 0.00010736546, "MEAN_MOTION_DOT": 2.38e-06, "MEAN_MOTION_DDOT": 0}, "tle": {"line1": "1 42063U 17013A   25351.31937428  .00000238  00000+0  10737-3 0  9993", "line2": "2 42063  98.5714  63.7010 0001143  92.5175 267.6139 14.30818471458633"}}, "geometry": {"type": "Point", "coordinates": [73.21375789779238, -46.59948869979863]}}, {"type": "Feature", "properties": {"norad_id": 42767, "name": "CARTOSAT-2E", "group": "resource", "lat": 24.312877707375655, "lon": 45.79134598461748, "alt_km": 509.08870085485796, "timestamp": "2025-12-17T15:50:09.434385+00:00", "meta": {"OBJECT_NAME": "CARTOSAT-2E", "OBJECT_ID": "2017-036C", "EPOCH": "2025-12-17T07:49:28.371648", "MEAN_MOTION": 15.19243075, "ECCENTRICITY": 0.00022211, "INCLINATION": 97.4551, "RA_OF_ASC_NODE": 48.8535, "ARG_OF_PERICENTER": 216.6446, "MEAN_ANOMALY": 143.4637, "EPHEMERIS_TYPE": 0, "CLASSIFICATION_TYPE": "U", "NORAD_CAT_ID": 42767, "ELEMENT_SET_NO": 999, "REV_AT_EPOCH": 47053, "BSTAR": 0.00018030374, "MEAN_MOTION_DOT": 3.731e-05, "MEAN_MOTION_DDOT": 0}, "tle": {"line1": "1 42767U 17036C   25351.32602282  .00003731  00000+0  18030-3 0  9992", "line2": "2 42767  97.4551  48.8535 0002221 216.6446 143.4637 15.19243075470532"}}, "geometry": {"type": "Point", "coordinates": [45.79134598461748, 24.312877707375655]}}, {"type": "Feature", "properties": {"norad_id": 42920, "name": "FORMOSAT-5", "group": "resource", "lat": -48.59248237084973, "lon": 75.34471534751313, "alt_km": 723.6692695425709, "timestamp": "2025-12-17T15:50:09.434396+00:00", "meta": {"OBJECT_NAME": "FORMOSAT-5", "OBJECT_ID": "2017-049A", "EPOCH": "2025-12-17T06:07:50.779776", "MEAN_MOTION": 14.50763374, "ECCENTRICITY": 0.00098905, "INCLINATION": 98.245, "RA_OF_ASC_NODE": 65.4847, "ARG_OF_PERICENTER": 286.3152, "MEAN_ANOMALY": 73.6955, "EPHEMERIS_TYPE": 0, "CLASSIFICATION_TYPE": "U", "NORAD_CAT_ID": 42920, "ELEMENT_SET_NO": 999, "REV_AT_EPOCH": 44029, "BSTAR": 5.6482395e-05, "MEAN_MOTION_DOT": 1.78e-06, "MEAN_MOTION_DDOT": 0}, "tle": {"line1": "1 42920U 17049A   25351.25544884  .00000178  00000+0  56482-4 0  9998", "line2": "2 42920  98.2450  65.4847 0009890 286.3152  73.6955 14.50763374440298"}}, "geometry": {"type": "Point", "coordinates": [75.34471534751313, -48.59248237084973]}}, {"type": "Feature", "properties": {"norad_id": 42969, "name": "SENTINEL-5P", "group": "resource", "lat": 28.898121022156854, "lon": 115.09353461562065, "alt_km": 825.2251751126678, "timestamp": "2025-12-17T15:50:09.434407+00:00", "meta": {"OBJECT_NAME": "SENTINEL-5P", "OBJECT_ID": "2017-064A", "EPOCH": "2025-12-17T06:40:13.698912", "MEAN_MOTION": 14.19518667, "ECCENTRICITY": 0.00010041, "INCLINATION": 98.7789, "RA_OF_ASC_NODE": 289.8219, "ARG_OF_PERICENTER": 89.7079, "MEAN_ANOMALY": 270.4212, "EPHEMERIS_TYPE": 0, "CLASSIFICATION_TYPE": "U", "NORAD_CAT_ID": 42969, "ELEMENT_SET_NO": 999, "REV_AT_EPOCH": 42375, "BSTAR": 4.5426528e-05, "MEAN_MOTION_DOT": 5.2e-07, "MEAN_MOTION_DDOT": 0}, "tle": {"line1": "1 42969U 17064A   25351.27793633  .00000052  00000+0  45427-4 0  9996", "line2": "2 42969  98.7789 289.8219 0001004  89.7079 270.4212 14.19518667423751"}}, "geometry": {"type": "Point", "coordinates": [115.09353461562065, 28.898121022156854]}}]}